OBJECT_NAME,OBJECT_ID,EPOCH,MEAN_MOTION,ECCENTRICITY,INCLINATION,RA_OF_ASC_NODE,ARG_OF_PERICENTER,MEAN_ANOMALY,EPHEMERIS_TYPE,CLASSIFICATION_TYPE,NORAD_CAT_ID,ELEMENT_SET_NO,REV_AT_EPOCH,BSTAR,MEAN_MOTION_DOT,MEAN_MOTION_DDOT
ONEWEB-0211,2021-045A,2026-06-11T04:26:55.733856,13.16196555,.0001703,87.9005,260.2784,121.7943,238.3354,0,U,48767,999,24365,.42250245E-3,.173E-5,0
ONEWEB-0223,2021-045B,2026-06-10T19:18:24.570720,13.15542107,.00015819,87.9010,260.4611,108.2574,251.8728,0,U,48768,999,24356,-.42609151E-3,-.148E-5,0
ONEWEB-0230,2021-045C,2026-06-11T05:34:28.492608,13.15548037,.0002052,87.8999,260.3901,96.5219,263.6145,0,U,48769,999,24388,-.20498702E-3,-.64E-6,0
ONEWEB-0237,2021-045D,2026-06-11T05:18:28.667232,13.15547194,.00017024,87.9001,260.3942,100.8738,259.2584,0,U,48770,999,24360,-.15260713E-3,-.45E-6,0
ONEWEB-0235,2021-045E,2026-06-11T04:41:59.959104,13.15548357,.00015479,87.9010,260.3842,105.4048,254.7254,0,U,48771,999,24359,.31592561E-3,.132E-5,0
ONEWEB-0242,2021-045F,2026-06-11T04:32:50.788608,13.15553867,.00018486,87.9011,260.3823,96.6913,263.4427,0,U,48772,999,24363,-.2472574E-2,-.918E-5,0
ONEWEB-0241,2021-045G,2026-06-11T06:04:08.854464,13.15549255,.00017362,87.8997,260.3886,112.7433,247.3881,0,U,48773,999,24355,.45754267E-3,.185E-5,0
ONEWEB-0243,2021-045H,2026-06-11T05:00:14.832864,13.15548813,.00015289,87.9001,260.4096,90.0828,270.0478,0,U,48774,999,24357,-.47693817E-4,-.5E-7,0
ONEWEB-0222,2021-045J,2026-06-10T23:07:43.315392,13.15548633,.00017693,87.9008,260.4255,105.6849,254.4476,0,U,48775,999,24358,.25811943E-3,.11E-5,0
ONEWEB-0244,2021-045K,2026-06-11T05:13:56.318880,13.15548463,.00018333,87.9015,260.3691,100.6842,259.4495,0,U,48776,999,24418,-.22398789E-3,-.72E-6,0
ONEWEB-0247,2021-045L,2026-06-11T05:09:21.591072,13.15547608,.00011403,87.9000,260.4027,95.1523,264.9738,0,U,48777,999,24362,-.13250354E-3,-.37E-6,0
ONEWEB-0245,2021-045M,2026-06-11T05:02:31.007904,13.15547684,.0001885,87.9009,260.3823,105.8099,254.3239,0,U,48778,999,24359,-.10588817E-3,-.27E-6,0
ONEWEB-0229,2021-045N,2026-06-11T04:55:41.047680,13.15548267,.00018409,87.9010,260.3813,97.9814,262.1526,0,U,48779,999,24362,-.8805128E-5,.1E-6,0
ONEWEB-0228,2021-045P,2026-06-11T05:43:46.343712,13.15548317,.00018921,87.9012,260.3670,101.8504,258.2839,0,U,48780,999,24354,-.74626135E-3,-.268E-5,0
ONEWEB-0232,2021-045Q,2026-06-11T05:07:04.781856,13.15550121,.00019654,87.9013,260.3730,103.0311,257.1038,0,U,48781,999,24386,-.99033045E-4,-.24E-6,0
ONEWEB-0231,2021-045R,2026-06-11T04:35:08.619936,13.15548381,.00017364,87.9006,260.3910,104.5240,255.6083,0,U,48782,999,24355,.28591499E-3,.12E-5,0
ONEWEB-0234,2021-045S,2026-06-11T05:29:42.656352,13.15548982,.0002616,87.9006,260.3650,114.6361,245.5042,0,U,48783,999,24369,-.30652273E-3,-.103E-5,0
ONEWEB-0238,2021-045T,2026-06-11T05:30:05.214528,13.15548982,.00022824,87.9013,260.3592,109.2171,250.9206,0,U,48784,999,24359,-.88918416E-3,-.322E-5,0
ONEWEB-0240,2021-045U,2026-06-11T06:00:42.096672,13.15547249,.00017888,87.9011,260.3652,110.0888,250.0435,0,U,48785,999,24362,.26848519E-3,.114E-5,0
ONEWEB-0246,2021-045V,2026-06-11T05:52:43.956480,13.15549042,.00018625,87.9011,260.3709,98.3220,261.8121,0,U,48786,999,24349,.1241914E-3,.6E-6,0
ONEWEB-0210,2021-045W,2026-06-11T05:16:12.166464,13.15550935,.00012332,87.9015,260.3729,81.0591,279.0679,0,U,48787,999,24353,-.12221589E-3,-.33E-6,0
ONEWEB-0214,2021-045X,2026-06-11T05:28:45.849216,13.15548916,.00019045,87.9011,260.3678,89.9364,270.1984,0,U,48788,999,24350,-.17337156E-3,-.52E-6,0
ONEWEB-0221,2021-045Y,2026-06-11T05:39:02.156832,13.15548115,.00017772,87.9009,260.3752,103.3988,256.7341,0,U,48789,999,24359,-.60272782E-4,-.1E-6,0
ONEWEB-0213,2021-045Z,2026-06-11T05:23:02.423904,13.15546963,.00016616,87.9010,260.3808,100.6551,259.4767,0,U,48790,999,24365,-.22608043E-3,-.72E-6,0
ONEWEB-0212,2021-045AA,2026-06-11T04:49:58.844064,13.15550111,.00019942,87.9011,260.3795,101.8625,258.2729,0,U,48791,999,24364,.1247978E-3,.6E-6,0
ONEWEB-0227,2021-045AB,2026-06-10T23:20:16.605024,13.15548776,.00018863,87.9008,260.4261,102.7315,257.4026,0,U,48792,999,24356,.60061384E-4,.35E-6,0
ONEWEB-0226,2021-045AC,2026-06-11T04:39:42.221088,13.15550314,.00016995,87.9006,260.3868,97.6778,262.4546,0,U,48793,999,24356,.28463238E-3,.12E-5,0
ONEWEB-0224,2021-045AD,2026-06-11T05:36:43.801056,13.15547877,.00021605,87.8997,260.4131,125.3392,234.7940,0,U,48794,999,24349,-.89204344E-3,-.323E-5,0
ONEWEB-0233,2021-045AE,2026-06-11T05:43:23.941056,13.15548535,.00017109,87.8999,260.4198,106.8532,253.2786,0,U,48795,999,24351,-.67817465E-4,-.13E-6,0
ONEWEB-0190,2021-045AF,2026-06-11T05:25:19.154496,13.15546932,.00012753,87.9002,260.3841,105.1158,255.0114,0,U,48796,999,24358,-.21026404E-3,-.66E-6,0
