1 48767U 21045A 26162.18536729 .00000173 00000+0 42250-3 0 9998 
2 48767 87.9005 260.2784 0001703 121.7943 238.3354 13.16196555243650 
1 48768U 21045B 26161.80445105 -.00000148 00000+0 -42609-3 0 9996 
2 48768 87.9010 260.4611 0001581 108.2574 251.8728 13.15542107243564 
1 48769U 21045C 26162.23227422 -.00000064 00000+0 -20499-3 0 9995 
2 48769 87.8999 260.3901 0002052 96.5219 263.6145 13.15548037243887 
1 48770U 21045D 26162.22116513 -.00000045 00000+0 -15261-3 0 9994 
2 48770 87.9001 260.3942 0001702 100.8738 259.2584 13.15547194243606 
1 48771U 21045E 26162.19583286 .00000132 00000+0 31593-3 0 9997 
2 48771 87.9010 260.3842 0001547 105.4048 254.7254 13.15548357243592 
1 48772U 21045F 26162.18947672 -.00000918 00000+0 -24726-2 0 9993 
2 48772 87.9011 260.3823 0001848 96.6913 263.4427 13.15553867243635 
1 48773U 21045G 26162.25288026 .00000185 00000+0 45754-3 0 9992 
2 48773 87.8997 260.3886 0001736 112.7433 247.3881 13.15549255243552 
1 48774U 21045H 26162.20850501 -.00000005 00000+0 -47694-4 0 9990 
2 48774 87.9001 260.4096 0001528 90.0828 270.0478 13.15548813243575 
1 48775U 21045J 26161.96369578 .00000110 00000+0 25812-3 0 9994 
2 48775 87.9008 260.4255 0001769 105.6849 254.4476 13.15548633243588 
1 48776U 21045K 26162.21801295 -.00000072 00000+0 -22399-3 0 9997 
2 48776 87.9015 260.3691 0001833 100.6842 259.4495 13.15548463244184 
1 48777U 21045L 26162.21483323 -.00000037 00000+0 -13250-3 0 9993 
2 48777 87.9000 260.4027 0001140 95.1523 264.9738 13.15547608243627 
1 48778U 21045M 26162.21008111 -.00000027 00000+0 -10589-3 0 9993 
2 48778 87.9009 260.3823 0001885 105.8099 254.3239 13.15547684243592 
1 48779U 21045N 26162.20533620 .00000010 00000+0 -88051-5 0 9993 
2 48779 87.9010 260.3813 0001840 97.9814 262.1526 13.15548267243629 
1 48780U 21045P 26162.23873083 -.00000268 00000+0 -74626-3 0 9995 
2 48780 87.9012 260.3670 0001892 101.8504 258.2839 13.15548317243542 
1 48781U 21045Q 26162.21324979 -.00000024 00000+0 -99033-4 0 9999 
2 48781 87.9013 260.3730 0001965 103.0311 257.1038 13.15550121243862 
1 48782U 21045R 26162.19107199 .00000120 00000+0 28591-3 0 9995 
2 48782 87.9006 260.3910 0001736 104.5240 255.6083 13.15548381243552 
1 48783U 21045S 26162.22896593 -.00000103 00000+0 -30652-3 0 9997 
2 48783 87.9006 260.3650 0002616 114.6361 245.5042 13.15548982243693 
1 48784U 21045T 26162.22922702 -.00000322 00000+0 -88918-3 0 9991 
2 48784 87.9013 260.3592 0002282 109.2171 250.9206 13.15548982243596 
1 48785U 21045U 26162.25048723 .00000114 00000+0 26849-3 0 9999 
2 48785 87.9011 260.3652 0001788 110.0888 250.0435 13.15547249243621 
1 48786U 21045V 26162.24495320 .00000060 00000+0 12419-3 0 9996 
2 48786 87.9011 260.3709 0001862 98.3220 261.8121 13.15549042243496 
1 48787U 21045W 26162.21958526 -.00000033 00000+0 -12222-3 0 9990 
2 48787 87.9015 260.3729 0001233 81.0591 279.0679 13.15550935243532 
1 48788U 21045X 26162.22830844 -.00000052 00000+0 -17337-3 0 9997 
2 48788 87.9011 260.3678 0001904 89.9364 270.1984 13.15548916243506 
1 48789U 21045Y 26162.23544163 -.00000010 00000+0 -60273-4 0 9997 
2 48789 87.9009 260.3752 0001777 103.3988 256.7341 13.15548115243595 
1 48790U 21045Z 26162.22433361 -.00000072 00000+0 -22608-3 0 9992 
2 48790 87.9010 260.3808 0001661 100.6551 259.4767 13.15546963243657 
1 48791U 21045AA 26162.20137551 .00000060 00000+0 12480-3 0 9995 
2 48791 87.9011 260.3795 0001994 101.8625 258.2729 13.15550111243642 
1 48792U 21045AB 26161.97241441 .00000035 00000+0 60061-4 0 9994 
2 48792 87.9008 260.4261 0001886 102.7315 257.4026 13.15548776243560 
1 48793U 21045AC 26162.19423867 .00000120 00000+0 28463-3 0 9998 
2 48793 87.9006 260.3868 0001699 97.6778 262.4546 13.15550314243562 
1 48794U 21045AD 26162.23384029 -.00000323 00000+0 -89204-3 0 9997 
2 48794 87.8997 260.4131 0002160 125.3392 234.7940 13.15547877243492 
1 48795U 21045AE 26162.23847154 -.00000013 00000+0 -67817-4 0 9994 
2 48795 87.8999 260.4198 0001710 106.8532 253.2786 13.15548535243517 
1 48796U 21045AF 26162.22591614 -.00000066 00000+0 -21026-3 0 9990 
2 48796 87.9002 260.3841 0001275 105.1158 255.0114 13.15546932243581 
